{"type":"FeatureCollection","name":"Parcel 59","features":[{"type":"Feature","properties":{"fid":33,"id":34,"ParcelName":"Parcel-59","Parcel_No":59.0,"Zone":"Academic Area","Status":"Survey Completed"},"geometry":{"type":"MultiPolygon","coordinates":[[[[72.91601089004818,19.13244932684873],[72.91612003909454,19.131424215542456],[72.9153597317886,19.131356522662458],[72.91533219490849,19.131532044274145],[72.91530257110895,19.13160708111811],[72.9152741795243,19.13168588782719],[72.91525915882784,19.131746877857942],[72.91519895262546,19.13188130206939],[72.91505201836925,19.132123498421695],[72.9148085280604,19.132462164359954],[72.91467204281821,19.13259407343383],[72.9146895627056,19.132730057282483],[72.91475788042156,19.13372642090413],[72.9148838639168,19.13362917812526],[72.91500667295395,19.133596857326033],[72.9153716640863,19.133579822606045],[72.91543000916609,19.13241222344933],[72.91601089004818,19.13244932684873]]]]}}]}