{"type":"FeatureCollection","name":"Turf","features":[{"type":"Feature","properties":{"id":1,"type":"Turf","Parcel_No.":"Parcel 59","Zone_Name":"Academic","Zone No":"Z02","latitude":"19.132972° N","longitude":"72.915198° E","GeoCordinates":"19.132972° N, 72.915198° E","Species":"Turf","turf_area":34.97,"turd_id":1,"Count":1},"geometry":{"type":"MultiPolygon","coordinates":[[[[72.91521591218692,19.13301169501024],[72.91521901993488,19.13298765588083],[72.91522212768284,19.13293627452379],[72.91516949020176,19.132946917806198],[72.91517104407573,19.132960864175224],[72.9151692959675,19.13296820436897],[72.91517415182369,19.132989490929],[72.91518036731962,19.132995363083005],[72.91519396371696,19.133004721828026],[72.91520717164578,19.133011328000656],[72.91521591218692,19.13301169501024]]]]}},{"type":"Feature","properties":{"id":2,"type":"Turf","Parcel_No.":"Parcel 59","Zone_Name":"Academic","Zone No":"Z02","latitude":"19.132266° N","longitude":"72.915461° E","GeoCordinates":"19.132266° N, 72.915461° E","Species":"Turf","turf_area":87.758,"turd_id":2,"Count":2},"geometry":{"type":"MultiPolygon","coordinates":[[[[72.91541539075915,19.132309053669616],[72.91542160625508,19.132218768903503],[72.915507069324,19.132224641084917],[72.91549929995409,19.132311622747608],[72.91541539075915,19.132309053669616]]]]}},{"type":"Feature","properties":{"id":3,"type":"Turf","Parcel_No.":"Parcel 59","Zone_Name":"Academic","Zone No":"Z02","latitude":"19.132379° N","longitude":"72.915628° E","GeoCordinates":"19.132379° N, 72.915628° E","Species":"Turf","turf_area":77.68,"turd_id":3,"Count":3},"geometry":{"type":"MultiPolygon","coordinates":[[[[72.91567702429059,19.132425396161306],[72.91563273888214,19.132303181491213],[72.91562069635879,19.132303181491213],[72.91557951869831,19.13242099203062],[72.91567245978575,19.132427139463005],[72.91567770411045,19.132427322968447],[72.91567702429059,19.132425396161306]]]]}},{"type":"Feature","properties":{"id":4,"type":"Turf","Parcel_No.":"Parcel 59","Zone_Name":"Academic","Zone No":"Z02","latitude":"19.132358° N","longitude":"72.915693° E","GeoCordinates":"19.132358° N, 72.915693° E","Species":"Turf","turf_area":42.124,"turd_id":4,"Count":4},"geometry":{"type":"MultiPolygon","coordinates":[[[[72.91570013816602,19.132419156976134],[72.91572733096068,19.132412917790727],[72.91568848411117,19.132297125807003],[72.91565818356855,19.132309604186332],[72.91570013816602,19.132419156976134]]]]}},{"type":"Feature","properties":{"id":5,"type":"Turf","Parcel_No.":"Parcel 59","Zone_Name":"Academic","Zone No":"Z02","latitude":"19.132877° N","longitude":"72.914945° E","GeoCordinates":"19.132877° N, 72.914945° E","Species":"Turf","turf_area":1033.328,"turd_id":5,"Count":5},"geometry":{"type":"MultiPolygon","coordinates":[[[[72.91512287398236,19.133135193688624],[72.91506615758207,19.132904344672433],[72.91503624550795,19.1327949757095],[72.91502624244423,19.132757357173602],[72.91501691920034,19.132728546874482],[72.91499419379339,19.132685973684417],[72.91497243955767,19.132649272649694],[72.91490465180526,19.132670375745693],[72.9148852283805,19.132663035538705],[72.91484715846798,19.132611654080673],[72.91476946476897,19.132674779869728],[72.91485570477488,19.132939761116376],[72.91505731992382,19.132897554990603],[72.91508023956503,19.132987839385645],[72.91495670658361,19.13301389706772],[72.91488522838051,19.133030045488354],[72.91493029072592,19.133152259620577],[72.91512287398236,19.133135193688624]]]]}},{"type":"Feature","properties":{"id":6,"type":"Turf","Parcel_No.":"Parcel 59","Zone_Name":"Academic","Zone No":"Z02","latitude":"19.132742° N","longitude":"72.915106° E","GeoCordinates":"19.132742° N, 72.915106° E","Species":"Turf","turf_area":336.072,"turd_id":6,"Count":6},"geometry":{"type":"MultiPolygon","coordinates":[[[[72.91491365132552,19.132450108225726],[72.91491576010344,19.132468259078664],[72.91491780807078,19.132483046817864],[72.91492763619135,19.132498064300627],[72.91498787781113,19.132581032832025],[72.91502357095654,19.132639630928377],[72.9150571256897,19.132697718013816],[72.91507680809346,19.13274175924159],[72.91510788557305,19.132873882854437],[72.91512860389278,19.1329061797215],[72.91521976449962,19.13289394606047],[72.91522856978553,19.132802927594014],[72.91523167753346,19.132764758544756],[72.91514673242254,19.132768673319443],[72.91498426948766,19.13253054263171],[72.91494487049657,19.132483922104566],[72.9149408720841,19.13245259605127],[72.91493511827106,19.132414636237538],[72.91491365132552,19.132450108225726]]]]}},{"type":"Feature","properties":{"id":7,"type":"Turf","Parcel_No.":"Parcel 59","Zone_Name":"Academic","Zone No":"Z02","latitude":"19.131787° N","longitude":"72.915466° E","GeoCordinates":"19.131787° N, 72.915466° E","Species":"Turf","turf_area":69.059,"turd_id":7,"Count":7},"geometry":{"type":"MultiPolygon","coordinates":[[[[72.91550800812296,19.131779945089434],[72.91549376427812,19.131760615772798],[72.91549454121512,19.13174960540155],[72.91542332199103,19.131746913977356],[72.91542280403304,19.131809550747246],[72.91550515935398,19.131834752253432],[72.91550800812296,19.131779945089434]]]]}},{"type":"Feature","properties":{"id":8,"type":"Turf","Parcel_No.":"Parcel 59","Zone_Name":"Academic","Zone No":"Z02","latitude":"19.131544° N","longitude":"72.915479° E","GeoCordinates":"19.131544° N, 72.915479° E","Species":"Turf","turf_area":80.051,"turd_id":8,"Count":8},"geometry":{"type":"MultiPolygon","coordinates":[[[[72.915518820496,19.131592218181176],[72.91545459370482,19.1315902607799],[72.91543491130108,19.131558942356342],[72.91544268067098,19.131528113277355],[72.91544837820891,19.13149483743961],[72.91551467683205,19.13149679484201],[72.91551364091606,19.13151881561748],[72.91551079214712,19.13153545353478],[72.91551415887407,19.13155258080083],[72.91551933845399,19.131565793262002],[72.915518820496,19.131592218181176]]]]}},{"type":"Feature","properties":{"id":9,"type":"Turf","Parcel_No.":"Parcel 59","Zone_Name":"Academic","Zone No":"Z02","latitude":"19.131386° N","longitude":"72.915427° E","GeoCordinates":"19.131386° N, 72.915427° E","Species":"Turf","turf_area":34.494,"turd_id":9,"Count":9},"geometry":{"type":"MultiPolygon","coordinates":[[[[72.91545614757881,19.13141140314048],[72.91546132715874,19.131366382856008],[72.91539761832556,19.131359531942074],[72.91539295670361,19.13140699898276],[72.91545614757881,19.13141140314048]]]]}},{"type":"Feature","properties":{"id":10,"type":"Turf","Parcel_No.":"Parcel 59","Zone_Name":"Academic","Zone No":"Z02","latitude":"19.132632° N","longitude":"72.914797° E","GeoCordinates":"19.132632° N, 72.914797° E","Species":"Turf","turf_area":31.63,"turd_id":10,"Count":10},"geometry":{"type":"MultiPolygon","coordinates":[[[[72.91483015181699,19.13259159768956],[72.91473757068941,19.13266088348234],[72.91475005353807,19.13266334042481],[72.91475473460632,19.132663094730564],[72.9147598057636,19.132663954660426],[72.91476721745497,19.132663463271935],[72.91477085828583,19.132663094730564],[72.91477709971018,19.13266248049495],[72.91478451140155,19.13265990070534],[72.91479023270718,19.132656706680052],[72.91484601543715,19.132611130389403],[72.91483015181699,19.13259159768956]]]]}},{"type":"Feature","properties":{"id":12,"type":"Turf","Parcel_No.":"Parcel 59","Zone_Name":"Academic","Zone No":"Z02","latitude":"19.132126° N","longitude":"72.915138° E","GeoCordinates":"19.132126° N, 72.915138° E","Species":"Turf","turf_area":88.424,"turd_id":11,"Count":11},"geometry":{"type":"MultiPolygon","coordinates":[[[[72.91495732083774,19.132408923837705],[72.91496304214341,19.132402412930045],[72.91497305442822,19.13239098812918],[72.91498579733627,19.132376860686172],[72.91500192101579,19.13235745080597],[72.9150171344876,19.132338778007686],[72.91503897947277,19.132309294637658],[72.91505822386445,19.13228128543126],[72.91508474991784,19.13224037723968],[72.91510646487333,19.13220401439423],[72.91512414890893,19.132172196897898],[72.91513988249946,19.13214173071806],[72.91515392570422,19.132115195653615],[72.91516692867158,19.13209210031628],[72.91518513282588,19.132062616902214],[72.91519761567453,19.132030185140668],[72.91521217899798,19.13200217588694],[72.9152288227962,19.13197858914327],[72.91525222813745,19.131943700412076],[72.91526939205436,19.13191126862718],[72.91528668600094,19.13188141663772],[72.91527498333033,19.13187478286156],[72.91525417858257,19.131909671607303],[72.91524013537781,19.131936206704765],[72.9152169900959,19.131972078218638],[72.91520164659443,19.131994190791797],[72.91518422261817,19.132026376865213],[72.91517147971014,19.13205782584693],[72.91515470588226,19.1320876778045],[72.91514248309292,19.132108807581897],[72.91511205614928,19.132166914455823],[72.91509489223239,19.13219873195318],[72.91507330730654,19.132235463342116],[72.91504808154986,19.132276862924538],[72.91503078760327,19.132303766505178],[72.91500881258844,19.132334724044608],[72.91499385917601,19.13235376538542],[72.91497721537777,19.132372806724035],[72.91496460249944,19.13238767125136],[72.91495042926502,19.132402904319306],[72.91495732083774,19.132408923837705]]]]}},{"type":"Feature","properties":{"id":13,"type":"Turf","Parcel_No.":"Parcel 59","Zone_Name":"Academic","Zone No":"Z02","latitude":"19.131754° N","longitude":"72.916018° E","GeoCordinates":"19.131754° N, 72.916018° E","Species":"Turf","turf_area":46.802,"turd_id":12,"Count":12},"geometry":{"type":"MultiPolygon","coordinates":[[[[72.91598091442809,19.131782032815035],[72.91598507537763,19.13172454004481],[72.91605373104528,19.13172454004481],[72.91604957009574,19.13178399837948],[72.91598091442809,19.131782032815035]]]]}},{"type":"Feature","properties":{"id":14,"type":"Turf","Parcel_No.":"Parcel 59","Zone_Name":"Academic","Zone No":"Z02","latitude":"19.131636° N","longitude":"72.916052° E","GeoCordinates":"19.131636° N, 72.916052° E","Species":"Turf","turf_area":62.548,"turd_id":13,"Count":13},"geometry":{"type":"MultiPolygon","coordinates":[[[[72.91601264166843,19.131672452560494],[72.91601836297407,19.131599235219852],[72.91609117959128,19.131599235219852],[72.91608389792955,19.131674909517663],[72.91601264166843,19.131672452560494]]]]}},{"type":"Feature","properties":{"id":16,"type":"Turf","Parcel_No.":"Parcel 59","Zone_Name":"Academic","Zone No":"Z02","latitude":"19.131896° N","longitude":"72.915984° E","GeoCordinates":"19.131896° N, 72.915984° E","Species":"Turf","turf_area":37.977,"turd_id":14,"Count":14},"geometry":{"type":"MultiPolygon","coordinates":[[[[72.91600145911652,19.131926993129742],[72.91599209698,19.131932889817815],[72.91598169460613,19.131933872599138],[72.91596921175746,19.131930924255144],[72.91596609104529,19.131928958692455],[72.91596245021444,19.131922570613547],[72.91595672890881,19.131886699088927],[72.91595308807794,19.131866060673975],[72.91600666030345,19.131866060673975],[72.91601654255864,19.131866060673975],[72.91600145911652,19.131926993129742]]]]}}]}